SAUDISAT 1C (SO-50)     
1 27607U 02058C   26189.05902169  .00000576  00000+0  85741-4 0  9991
2 27607  64.5519  64.4071 0074727 258.5866 100.6840 14.83089154267550
SAUDISAT 2              
1 28371U 04025F   26188.97911947  .00000172  00000+0  49532-4 0  9990
2 28371  98.5515 189.4989 0023697 231.1200 128.7883 14.56695518168776
SAUDISAT 3              
1 31118U 07012B   26188.86328508  .00000187  00000+0  38392-4 0  9993
2 31118  98.1464 139.2785 0015107 156.8633 203.3257 14.71437510 30782
PISAT                   
1 41784U 16059B   26188.91904326  .00000704  00000+0  12728-3 0  9997
2 41784  97.8185 188.4815 0030059 137.1043 223.2515 14.69020500522786
FLYING LAPTOP           
1 42831U 17042G   26189.18174369  .00002449  00000+0  19415-3 0  9998
2 42831  97.4784 343.9199 0019926  54.6204 305.6879 15.01281935489605
SALSAT                  
1 46495U 20068K   26188.94384156  .00004490  00000+0  15694-3 0  9993
2 46495  97.8859 193.2762 0008470 220.3352 139.7260 15.30102262318532
